{
  "type": "FeatureCollection",
  "features": [
    {
      "type": "Feature",
      "properties": {
        "norad_id": 34560,
        "name": "COSMOS 2251 DEB",
        "group": "cosmos-2251-debris",
        "lat": 15.268389284071702,
        "lon": -66.80681247786428,
        "alt_km": 645.9184596892392,
        "timestamp": "2025-12-25T07:00:34.442805+00:00",
        "meta_object_name": "COSMOS 2251 DEB",
        "meta_object_id": "1993-036UW",
        "meta_epoch": "2025-12-24T07:34:02.313120",
        "meta_mean_motion": 14.72425193,
        "meta_eccentricity": 0.0013752,
        "meta_inclination": 74.0175,
        "meta_ra_of_asc_node": 119.5828,
        "meta_arg_of_pericenter": 202.4766,
        "meta_mean_anomaly": 186.1612,
        "meta_ephemeris_type": 0,
        "meta_classification_type": "U",
        "meta_norad_cat_id": 34560,
        "meta_element_set_no": 999,
        "meta_rev_at_epoch": 88422,
        "meta_bstar": 0.0023419587,
        "meta_mean_motion_dot": 0.00014869,
        "meta_mean_motion_ddot": 0,
        "tle_line1": "1 34560U 93036UW  25358.31530455  .00014869  00000+0  23420-2 0  9998",
        "tle_line2": "2 34560  74.0175 119.5828 0013752 202.4766 186.1612 14.72425193884220"
      },
      "geometry": {
        "type": "Point",
        "coordinates": [
          -66.80681247786428,
          15.268389284071702
        ]
      }
    },
    {
      "type": "Feature",
      "properties": {
        "norad_id": 34563,
        "name": "COSMOS 2251 DEB",
        "group": "cosmos-2251-debris",
        "lat": -24.773121243913135,
        "lon": 7.863688118764115,
        "alt_km": 738.4215119823393,
        "timestamp": "2025-12-25T07:00:34.442816+00:00",
        "meta_object_name": "COSMOS 2251 DEB",
        "meta_object_id": "1993-036UZ",
        "meta_epoch": "2025-12-24T18:30:36.896832",
        "meta_mean_motion": 14.46545832,
        "meta_eccentricity": 0.00138974,
        "meta_inclination": 74.0366,
        "meta_ra_of_asc_node": 181.2449,
        "meta_arg_of_pericenter": 274.6677,
        "meta_mean_anomaly": 100.185,
        "meta_ephemeris_type": 0,
        "meta_classification_type": "U",
        "meta_norad_cat_id": 34563,
        "meta_element_set_no": 999,
        "meta_rev_at_epoch": 88371,
        "meta_bstar": 0.00042006302,
        "meta_mean_motion_dot": 1.488e-05,
        "meta_mean_motion_ddot": 0,
        "tle_line1": "1 34563U 93036UZ  25358.77126038  .00001488  00000+0  42006-3 0  9994",
        "tle_line2": "2 34563  74.0366 181.2449 0013897 274.6677 100.1850 14.46545832883719"
      },
      "geometry": {
        "type": "Point",
        "coordinates": [
          7.863688118764115,
          -24.773121243913135
        ]
      }
    },
    {
      "type": "Feature",
      "properties": {
        "norad_id": 34564,
        "name": "COSMOS 2251 DEB",
        "group": "cosmos-2251-debris",
        "lat": 72.0881474063838,
        "lon": -82.8485782477069,
        "alt_km": 756.7766518429753,
        "timestamp": "2025-12-25T07:00:34.442826+00:00",
        "meta_object_name": "COSMOS 2251 DEB",
        "meta_object_id": "1993-036VA",
        "meta_epoch": "2025-12-24T20:42:06.602688",
        "meta_mean_motion": 14.40709151,
        "meta_eccentricity": 0.00194284,
        "meta_inclination": 74.0312,
        "meta_ra_of_asc_node": 215.5827,
        "meta_arg_of_pericenter": 317.807,
        "meta_mean_anomaly": 57.1552,
        "meta_ephemeris_type": 0,
        "meta_classification_type": "U",
        "meta_norad_cat_id": 34564,
        "meta_element_set_no": 999,
        "meta_rev_at_epoch": 88181,
        "meta_bstar": 0.000212216,
        "meta_mean_motion_dot": 6.53e-06,
        "meta_mean_motion_ddot": 0,
        "tle_line1": "1 34564U 93036VA  25358.86257642  .00000653  00000+0  21222-3 0  9991",
        "tle_line2": "2 34564  74.0312 215.5827 0019428 317.8070  57.1552 14.40709151881814"
      },
      "geometry": {
        "type": "Point",
        "coordinates": [
          -82.8485782477069,
          72.0881474063838
        ]
      }
    },
    {
      "type": "Feature",
      "properties": {
        "norad_id": 34567,
        "name": "COSMOS 2251 DEB",
        "group": "cosmos-2251-debris",
        "lat": 73.57050234244433,
        "lon": -121.8400810132393,
        "alt_km": 823.809048641614,
        "timestamp": "2025-12-25T07:00:34.442836+00:00",
        "meta_object_name": "COSMOS 2251 DEB",
        "meta_object_id": "1993-036VD",
        "meta_epoch": "2025-12-24T19:19:41.507328",
        "meta_mean_motion": 14.24029621,
        "meta_eccentricity": 0.00740836,
        "meta_inclination": 74.0411,
        "meta_ra_of_asc_node": 135.0643,
        "meta_arg_of_pericenter": 206.7043,
        "meta_mean_anomaly": 273.7937,
        "meta_ephemeris_type": 0,
        "meta_classification_type": "U",
        "meta_norad_cat_id": 34567,
        "meta_element_set_no": 999,
        "meta_rev_at_epoch": 87296,
        "meta_bstar": 0.00024239106,
        "meta_mean_motion_dot": 5.47e-06,
        "meta_mean_motion_ddot": 0,
        "tle_line1": "1 34567U 93036VD  25358.80534152  .00000547  00000+0  24239-3 0  9995",
        "tle_line2": "2 34567  74.0411 135.0643 0074083 206.7043 273.7937 14.24029621872961"
      },
      "geometry": {
        "type": "Point",
        "coordinates": [
          -121.8400810132393,
          73.57050234244433
        ]
      }
    },
    {
      "type": "Feature",
      "properties": {
        "norad_id": 34569,
        "name": "COSMOS 2251 DEB",
        "group": "cosmos-2251-debris",
        "lat": -62.26118655641135,
        "lon": 142.34517181772864,
        "alt_km": 771.9354983024687,
        "timestamp": "2025-12-25T07:00:34.442846+00:00",
        "meta_object_name": "COSMOS 2251 DEB",
        "meta_object_id": "1993-036VF",
        "meta_epoch": "2025-12-24T21:47:25.699776",
        "meta_mean_motion": 14.24781785,
        "meta_eccentricity": 0.01578608,
        "meta_inclination": 73.9893,
        "meta_ra_of_asc_node": 176.133,
        "meta_arg_of_pericenter": 1.7423,
        "meta_mean_anomaly": 123.4277,
        "meta_ephemeris_type": 0,
        "meta_classification_type": "U",
        "meta_norad_cat_id": 34569,
        "meta_element_set_no": 999,
        "meta_rev_at_epoch": 87141,
        "meta_bstar": 0.00044437576,
        "meta_mean_motion_dot": 1.152e-05,
        "meta_mean_motion_ddot": 0,
        "tle_line1": "1 34569U 93036VF  25358.90793634  .00001152  00000+0  44438-3 0  9996",
        "tle_line2": "2 34569  73.9893 176.1330 0157860   1.7423 123.4277 14.24781785871417"
      },
      "geometry": {
        "type": "Point",
        "coordinates": [
          142.34517181772864,
          -62.26118655641135
        ]
      }
    },
    {
      "type": "Feature",
      "properties": {
        "norad_id": 34570,
        "name": "COSMOS 2251 DEB",
        "group": "cosmos-2251-debris",
        "lat": -1.5744257517724383,
        "lon": 16.907496942530294,
        "alt_km": 931.2954101575033,
        "timestamp": "2025-12-25T07:00:34.442856+00:00",
        "meta_object_name": "COSMOS 2251 DEB",
        "meta_object_id": "1993-036VG",
        "meta_epoch": "2025-12-24T19:58:52.298400",
        "meta_mean_motion": 13.99839634,
        "meta_eccentricity": 0.01901296,
        "meta_inclination": 73.9577,
        "meta_ra_of_asc_node": 197.2533,
        "meta_arg_of_pericenter": 77.0578,
        "meta_mean_anomaly": 307.5602,
        "meta_ephemeris_type": 0,
        "meta_classification_type": "U",
        "meta_norad_cat_id": 34570,
        "meta_element_set_no": 999,
        "meta_rev_at_epoch": 85770,
        "meta_bstar": 0.00045041255,
        "meta_mean_motion_dot": 7.49e-06,
        "meta_mean_motion_ddot": 0,
        "tle_line1": "1 34570U 93036VG  25358.83254975  .00000749  00000+0  45041-3 0  9992",
        "tle_line2": "2 34570  73.9577 197.2533 0190129  77.0578 307.5602 13.99839634857700"
      },
      "geometry": {
        "type": "Point",
        "coordinates": [
          16.907496942530294,
          -1.5744257517724383
        ]
      }
    },
    {
      "type": "Feature",
      "properties": {
        "norad_id": 34571,
        "name": "COSMOS 2251 DEB",
        "group": "cosmos-2251-debris",
        "lat": 73.21414717665455,
        "lon": -129.52377121059013,
        "alt_km": 734.2424199270608,
        "timestamp": "2025-12-25T07:00:34.442866+00:00",
        "meta_object_name": "COSMOS 2251 DEB",
        "meta_object_id": "1993-036VH",
        "meta_epoch": "2025-12-24T20:40:26.923872",
        "meta_mean_motion": 14.49017935,
        "meta_eccentricity": 0.00648884,
        "meta_inclination": 74.0401,
        "meta_ra_of_asc_node": 159.7142,
        "meta_arg_of_pericenter": 192.1385,
        "meta_mean_anomaly": 167.8215,
        "meta_ephemeris_type": 0,
        "meta_classification_type": "U",
        "meta_norad_cat_id": 34571,
        "meta_element_set_no": 999,
        "meta_rev_at_epoch": 87469,
        "meta_bstar": 0.0030019972,
        "meta_mean_motion_dot": 0.00011689,
        "meta_mean_motion_ddot": 0,
        "tle_line1": "1 34571U 93036VH  25358.86142273  .00011689  00000+0  30020-2 0  9998",
        "tle_line2": "2 34571  74.0401 159.7142 0064888 192.1385 167.8215 14.49017935874697"
      },
      "geometry": {
        "type": "Point",
        "coordinates": [
          -129.52377121059013,
          73.21414717665455
        ]
      }
    }
  ]
}